{
  "norad_id": 68321,
  "name": "STARLINK-36987",
  "history": [
    {
      "epoch": "2026-03-31T16:00:01.999584Z",
      "apogee_km": 328.66380596031377,
      "perigee_km": 327.2662542972357,
      "latitude_deg": -22.755240282129236,
      "longitude_deg": 21.911105776292313,
      "height_km": 334.9618708901735,
      "semi_major_axis_km": 6706.1020301287745,
      "eccentricity": 0.0001042,
      "inclination_deg": 53.1595,
      "raan_deg": 252.7517,
      "arg_perigee_deg": 72.0526,
      "mean_anomaly_deg": 136.5845,
      "mean_motion_rev_day": 15.80874983
    }
  ]
}